STARLINK-5604           
1 55420U 23014AF  26068.32510867  .00000281  00000+0  31326-4 0  9999
2 55420  70.0002  45.4011 0002917 268.8937  91.1887 14.98329544172490
KOMPSAT-7               
1 66820U 25279A   26068.87103100  .00004022  00000+0  31599-3 0  9996
2 66820  97.6738  18.4558 0009895 343.5135  16.5766 15.01421798 14723
